*******************************************************************************
 Revised: Nov 05, 2015             Nix / (Pluto)                            902 

 Fit to all available observations including New Horizons encounter tracking.
*******************************************************************************
 
 
*******************************************************************************
Ephemeris / WWW_USER Thu Jun 18 11:46:43 2020 Pasadena, USA      / Horizons
*******************************************************************************
Target body name: Nix (902)                       {source: plu055l_merged}
Center body name: Solar System Barycenter (0)     {source: DE431mx}
Center-site name: BODY CENTER
*******************************************************************************
Start time      : A.D. 2000-Jun-05 00:00:00.0000 TDB
Stop  time      : A.D. 2040-May-26 00:00:00.0000 TDB
Step-size       : 14400 minutes
*******************************************************************************
Center geodetic : 0.00000000,0.00000000,0.0000000 {E-lon(deg),Lat(deg),Alt(km)}
Center cylindric: 0.00000000,0.00000000,0.0000000 {E-lon(deg),Dxy(km),Dz(km)}
Center radii    : (undefined)                                                  
Output units    : AU-D
Output type     : GEOMETRIC cartesian states
Output format   : 3 (position, velocity, LT, range, range-rate)
Reference frame : Ecliptic of J2000.0
*******************************************************************************
JDTDB
   X     Y     Z
   VX    VY    VZ
   LT    RG    RR
*******************************************************************************
$$SOE
2454400.500000000 = A.D. 2007-Oct-27 00:00:00.0000 TDB 
 X =-9.227884052085121E-01 Y =-3.113728967880490E+01 Z = 3.599036266296586E+00
 VX= 3.238618605555972E-03 VY=-6.149034284152338E-04 VZ=-8.238632816868009E-04
 LT= 1.811097393892742E-01 RG= 3.135817930028329E+01 RR= 4.207116912420900E-04
2454410.500000000 = A.D. 2007-Nov-06 00:00:00.0000 TDB 
 X =-8.904367444531023E-01 Y =-3.114391208573713E+01 Z = 3.590073965285782E+00
 VX= 3.184502581551479E-03 VY=-7.274205948241601E-04 VZ=-9.149208651816480E-04
 LT= 1.811363844155561E-01 RG= 3.136279274357146E+01 RR= 5.272008618601992E-04
2454420.500000000 = A.D. 2007-Nov-16 00:00:00.0000 TDB 
 X =-8.589391743500643E-01 Y =-3.115105730112663E+01 Z = 3.581712159581468E+00
 VX= 3.170722099030997E-03 VY=-6.529266104712913E-04 VZ=-7.764673415762067E-04
 LT= 1.811667706895728E-01 RG= 3.136805396382444E+01 RR= 4.729274673096844E-04
2454430.500000000 = A.D. 2007-Nov-26 00:00:00.0000 TDB 
 X =-8.266484005524075E-01 Y =-3.115729286175289E+01 Z = 3.573376296576634E+00
 VX= 3.247541002699828E-03 VY=-6.518056356731719E-04 VZ=-9.135564463829778E-04
 LT= 1.811920353714566E-01 RG= 3.137242840788882E+01 RR= 4.577090229106826E-04
2454440.500000000 = A.D. 2007-Dec-06 00:00:00.0000 TDB 
 X =-7.947963573629088E-01 Y =-3.116438252649665E+01 Z = 3.564385812190660E+00
 VX= 3.135081393615736E-03 VY=-7.185740306891573E-04 VZ=-8.295895224694523E-04
 LT= 1.812220424101710E-01 RG= 3.137762396558466E+01 RR= 5.400404947511308E-04
2454450.500000000 = A.D. 2007-Dec-16 00:00:00.0000 TDB 
 X =-7.630162426627823E-01 Y =-3.117087545298916E+01 Z = 3.556427405308223E+00
 VX= 3.241934848406848E-03 VY=-6.004309359464027E-04 VZ=-8.314219250689411E-04
 LT= 1.812495175734260E-01 RG= 3.138238114263411E+01 RR= 4.233400007299025E-04
2454460.500000000 = A.D. 2007-Dec-26 00:00:00.0000 TDB 
 X =-7.306779069348551E-01 Y =-3.117738235418523E+01 Z = 3.547423562654367E+00
 VX= 3.179950098931443E-03 VY=-7.160205271850237E-04 VZ=-9.137102445024526E-04
 LT= 1.812765164006533E-01 RG= 3.138705584465702E+01 RR= 5.339401471487296E-04
2454470.500000000 = A.D. 2008-Jan-05 00:00:00.0000 TDB 
 X =-6.991788798237845E-01 Y =-3.118435555557235E+01 Z = 3.539084983438949E+00
 VX= 3.174092240859343E-03 VY=-6.347589415012590E-04 VZ=-7.782221115643181E-04
 LT= 1.813069426291875E-01 RG= 3.139232398282023E+01 RR= 4.721248444596256E-04
2454480.500000000 = A.D. 2008-Jan-15 00:00:00.0000 TDB 
 X =-6.668622498118498E-01 Y =-3.119044291786782E+01 Z = 3.530691423250397E+00
 VX= 3.244699192223462E-03 VY=-6.421156202576290E-04 VZ=-9.181051244310085E-04
 LT= 1.813323493678793E-01 RG= 3.139672302325848E+01 RR= 4.657351436876054E-04
2454490.500000000 = A.D. 2008-Jan-25 00:00:00.0000 TDB 
 X =-6.350390551652635E-01 Y =-3.119740270546492E+01 Z = 3.521709048366012E+00
 VX= 3.134807779743815E-03 VY=-7.006871516910746E-04 VZ=-8.254744294171170E-04
 LT= 1.813626464727827E-01 RG= 3.140196880435808E+01 RR= 5.401512627976163E-04
2454500.500000000 = A.D. 2008-Feb-04 00:00:00.0000 TDB 
 X =-6.032243603778186E-01 Y =-3.120371365674272E+01 Z = 3.513731627736483E+00
 VX= 3.244745924560383E-03 VY=-5.857981387873498E-04 VZ=-8.379261502039909E-04
 LT= 1.813900755412194E-01 RG= 3.140671800033714E+01 RR= 4.259445378093625E-04
2454510.500000000 = A.D. 2008-Feb-14 00:00:00.0000 TDB 
 X =-5.709016774037020E-01 Y =-3.121010576617581E+01 Z = 3.504688356113808E+00
 VX= 3.175914210963979E-03 VY=-7.032190250798360E-04 VZ=-9.112311662690521E-04
 LT= 1.814174310363000E-01 RG= 3.141145445748451E+01 RR= 5.393199529801281E-04
2454520.500000000 = A.D. 2008-Feb-24 00:00:00.0000 TDB 
 X =-5.393994376258122E-01 Y =-3.121690563702840E+01 Z = 3.496371266194895E+00
 VX= 3.179067261793103E-03 VY=-6.146841094062927E-04 VZ=-7.797964654373460E-04
 LT= 1.814478850868765E-01 RG= 3.141672741288500E+01 RR= 4.694088788333644E-04
2454530.500000000 = A.D. 2008-Mar-05 00:00:00.0000 TDB 
 X =-5.070606226806401E-01 Y =-3.122284871686377E+01 Z = 3.487919315420158E+00
 VX= 3.243215131943922E-03 VY=-6.305859004113126E-04 VZ=-9.221488844415308E-04
 LT= 1.814734559702797E-01 RG= 3.142115487409901E+01 RR= 4.719050156149740E-04
2454540.500000000 = A.D. 2008-Mar-15 00:00:00.0000 TDB 
 X =-4.752669030040089E-01 Y =-3.122967676326579E+01 Z = 3.478948357137835E+00
 VX= 3.135980255075444E-03 VY=-6.816606638496424E-04 VZ=-8.221315350276261E-04
 LT= 1.815040299289171E-01 RG= 3.142644859093668E+01 RR= 5.389556305861184E-04
2454550.500000000 = A.D. 2008-Mar-25 00:00:00.0000 TDB 
 X =-4.434176829523572E-01 Y =-3.123580648532117E+01 Z = 3.470950021994522E+00
 VX= 3.248002899772300E-03 VY=-5.713613430103753E-04 VZ=-8.456034714018840E-04
 LT= 1.815314154267340E-01 RG= 3.143119024289679E+01 RR= 4.286081097043152E-04
2454560.500000000 = A.D. 2008-Apr-04 00:00:00.0000 TDB 
 X =-4.111134712930450E-01 Y =-3.124208446396215E+01 Z = 3.461870390972356E+00
 VX= 3.172350818071832E-03 VY=-6.903287285293600E-04 VZ=-9.095086715235242E-04
 LT= 1.815591305650661E-01 RG= 3.143598897034281E+01 RR= 5.444241364094898E-04
2454570.500000000 = A.D. 2008-Apr-14 00:00:00.0000 TDB 
 X =-3.796068781298396E-01 Y =-3.124870976431044E+01 Z = 3.453574012382328E+00
 VX= 3.183773864688226E-03 VY=-5.957961169903275E-04 VZ=-7.828858871928698E-04
 LT= 1.815896016339857E-01 RG= 3.144126487237810E+01 RR= 4.677141071171470E-04
2454580.500000000 = A.D. 2008-Apr-24 00:00:00.0000 TDB 
 X =-3.472489246725307E-01 Y =-3.125451092615020E+01 Z = 3.445064393139957E+00
 VX= 3.240290200700395E-03 VY=-6.211085712887974E-04 VZ=-9.270502475675300E-04
 LT= 1.816153504333720E-01 RG= 3.144572313878963E+01 RR= 4.799860850611557E-04
2454590.500000000 = A.D. 2008-May-04 00:00:00.0000 TDB 
 X =-3.154840748694973E-01 Y =-3.126120406692522E+01 Z = 3.436108114885334E+00
 VX= 3.136056634684789E-03 VY=-6.643841661574568E-04 VZ=-8.197615288183625E-04
 LT= 1.816461803464151E-01 RG= 3.145106117275884E+01 RR= 5.393548960503564E-04
2454600.500000000 = A.D. 2008-May-14 00:00:00.0000 TDB 
 X =-2.835998043974940E-01 Y =-3.126715363641370E+01 Z = 3.428085430651151E+00
 VX= 3.249625176134525E-03 VY=-5.584263430171499E-04 VZ=-8.529174358415263E-04
 LT= 1.816735257943480E-01 RG= 3.145579589029652E+01 RR= 4.328275593326895E-04
2454610.500000000 = A.D. 2008-May-24 00:00:00.0000 TDB 
 X =-2.513162647741034E-01 Y =-3.127331812095985E+01 Z = 3.418971489476864E+00
 VX= 3.167852320677303E-03 VY=-6.776868036856242E-04 VZ=-9.066285335686492E-04
 LT= 1.817016024464643E-01 RG= 3.146065721191392E+01 RR= 5.498183003971219E-04
2454620.500000000 = A.D. 2008-Jun-03 00:00:00.0000 TDB 
 X =-2.198035691493388E-01 Y =-3.127976729678078E+01 Z = 3.410694496748921E+00
 VX= 3.187892827739854E-03 VY=-5.771376997799524E-04 VZ=-7.853984758086143E-04
 LT= 1.817320777340942E-01 RG= 3.146593384439623E+01 RR= 4.663223579849728E-04
2454630.500000000 = A.D. 2008-Jun-13 00:00:00.0000 TDB 
 X =-1.874289155612396E-01 Y =-3.128542892575344E+01 Z = 3.402126860169342E+00
 VX= 3.237009743254601E-03 VY=-6.109100439328179E-04 VZ=-9.302507463232706E-04
 LT= 1.817580174177970E-01 RG= 3.147042516140263E+01 RR= 4.874749039522345E-04
2454640.500000000 = A.D. 2008-Jun-23 00:00:00.0000 TDB 
 X =-1.556921236487638E-01 Y =-3.129198500548370E+01 Z = 3.393186553993793E+00
 VX= 3.136888552724740E-03 VY=-6.452370207559923E-04 VZ=-8.157843873050467E-04
 LT= 1.817890869588673E-01 RG= 3.147580468567861E+01 RR= 5.380084764536537E-04
2454650.500000000 = A.D. 2008-Jul-03 00:00:00.0000 TDB 
 X =-1.237732654152102E-01 Y =-3.129775688585933E+01 Z = 3.385135595858920E+00
 VX= 3.251884680045507E-03 VY=-5.440085975048073E-04 VZ=-8.590416190834275E-04
 LT= 1.818164037675138E-01 RG= 3.148053444447756E+01 RR= 4.356908267877999E-04
2454660.500000000 = A.D. 2008-Jul-13 00:00:00.0000 TDB 
 X =-9.151373515356273E-02 Y =-3.130380883611791E+01 Z = 3.375990878269683E+00
 VX= 3.164707637872101E-03 VY=-6.633106686407428E-04 VZ=-9.034023578319781E-04
 LT= 1.818448463969281E-01 RG= 3.148545913309977E+01 RR= 5.534192136239344E-04
